ONEWEB-0509             
1 54127U 22138Q   24067.15425716 -.00000185  00000+0 -49360-3 0  9995
2 54127  87.9122 110.5933 0002029  90.8010 269.3355 13.19724617 67932
ONEWEB-0510             
1 54128U 22138R   24066.79161649 -.00000045  00000+0 -14382-3 0  9998
2 54128  87.9125  80.0893 0001561  81.7462 278.3848 13.20771851 70308
ONEWEB-0511             
1 54129U 22138S   24067.15110717 -.00000024  00000+0 -91429-4 0  9995
2 54129  87.9124 110.5962 0002474  95.8838 264.2576 13.19724167 67967
ONEWEB-0512             
1 54130U 22138T   24066.53667457  .00000059  00000+0  11432-3 0  9997
2 54130  87.9136 110.7266 0002252  82.5157 277.6231 13.19725871 66982
ONEWEB-0513             
1 54131U 22138U   24066.81071868  .00000053  00000+0  10042-3 0  9994
2 54131  87.9130 110.6690 0002513  85.1081 275.0339 13.19727918 67775
ONEWEB-0514             
1 54132U 22138V   24066.62829767 -.00000008  00000+0 -52906-4 0  9991
2 54132  87.9132 110.7048 0002346 100.5229 259.6168 13.19723379 67883
ONEWEB-0515             
1 54133U 22138W   24066.77901342  .00000173  00000+0  39270-3 0  9997
2 54133  87.9124  80.0727 0001107 122.8748 237.2492 13.20772176 70297
ONEWEB-0516             
1 54134U 22138X   24067.13373380  .00000101  00000+0  21892-3 0  9996
2 54134  87.9132 110.6082 0001902  91.9267 268.2083 13.19726267 67953
